{"type":"FeatureCollection","features":[{"type":"Feature","properties":{},"geometry":{"type":"Polygon","coordinates":[[[-180,-90],[180,-90],[180,90],[-180,90],[-180,-90]],[[19.0832,60.1916833],[19.1027,60.23525],[19.1323479,60.3013497],[19.1415741,60.3366088],[19.1525262,60.378414],[19.1600264,60.4070124],[19.1692526,60.442157],[19.1784787,60.4772635],[19.1877049,60.5123319],[19.1969311,60.5473624],[19.2015442,60.5648633],[19.2079288,60.5890695],[19.2107703,60.5998367],[19.2134721,60.610071],[19.2337471,60.6144588],[19.4732807,60.6658111],[19.5455668,60.6811389],[19.5588652,60.6838014],[19.570993,60.6860791],[19.5825458,60.6879322],[19.5940557,60.689655],[19.605866,60.6911592],[19.6162687,60.6924553],[19.6355526,60.6943753],[19.7978092,60.7083873],[19.8947807,60.7165812],[20.0251664,60.7275545],[20.1061431,60.7620138],[20.2018026,60.8025689],[20.3001002,60.8440587],[20.3413847,60.8614488],[20.3775366,60.87665],[20.437595,60.9018075],[20.5198626,60.9576673],[20.5433047,60.9735094],[20.5691938,60.990996],[20.6205506,61.02572],[20.6673884,61.0571954],[20.7205734,61.092847],[20.7731398,61.1334808],[20.7817884,61.167101],[20.7921273,61.2072429],[20.8024663,61.2473337],[20.8121335,61.2848724],[20.8295563,61.3526486],[20.8334831,61.3673],[20.843822,61.4071868],[20.8541609,61.4470228],[20.8639693,61.4869703],[20.8747853,61.5303891],[20.8835862,61.5667118],[20.8933946,61.6065058],[20.903203,61.6462488],[20.893001,61.6842962],[20.8889533,61.6999218],[20.8725969,61.7602507],[20.8623949,61.7981577],[20.8521928,61.8360181],[20.8419908,61.8738318],[20.8291525,61.9216727],[20.8218612,61.9486201],[20.8113847,61.9869932],[20.7968544,62.025131],[20.7823426,62.0629862],[20.7677149,62.1011302],[20.7602466,62.1205449],[20.7531398,62.1390082],[20.7464351,62.1563941],[20.7384413,62.1771098],[20.7334393,62.1900629],[20.7281379,62.2037853],[20.7237573,62.2150618],[20.7087023,62.2538553],[20.6917124,62.2974869],[20.6796336,62.328445],[20.6648902,62.366138],[20.6404325,62.4021715],[20.6158828,62.4381878],[20.5913385,62.4741562],[20.5667458,62.5100547],[20.5421543,62.5458995],[20.5174983,62.5817463],[20.4928005,62.6175034],[20.4660224,62.6561726],[20.4433626,62.6888775],[20.4185252,62.7245627],[20.4120566,62.7347963],[20.4031252,62.7504191],[20.394555,62.7654521],[20.3870158,62.7786185],[20.3817362,62.787945],[20.376272,62.7974531],[20.3704945,62.8075493],[20.3622741,62.8218005],[20.356164,62.8325022],[20.3505635,62.8421707],[20.342724,62.8559102],[20.3307506,62.8766706],[20.3177977,62.8991739],[20.3107306,62.9114001],[20.3001809,62.9300185],[20.2882981,62.9509993],[20.269057,62.9848231],[20.2488331,63.0201402],[20.2346429,63.0450797],[20.228223,63.0563557],[20.2074713,63.092501],[20.1866531,63.1287022],[20.1635668,63.1664345],[20.1786003,63.1772596],[20.1881271,63.1841175],[20.2071807,63.1978284],[20.2262342,63.2115329],[20.235761,63.2183827],[20.2578863,63.2342848],[20.2738681,63.2457655],[20.2929217,63.2594472],[20.3119752,63.2731224],[20.3310288,63.2867911],[20.3500824,63.3004533],[20.3596091,63.307282],[20.3786627,63.3209344],[20.3962064,63.3334992],[20.4080199,63.3395549],[20.431647,63.3516623],[20.4552741,63.3637646],[20.4843819,63.3786673],[20.5379689,63.4060826],[20.5497825,63.4121229],[20.5734096,63.4241997],[20.5852232,63.4302362],[20.5970367,63.4362714],[20.6206638,63.448338],[20.6442909,63.4603995],[20.6561044,63.4664284],[20.6797315,63.4784822],[20.6928675,63.4851816],[20.7098483,63.4877424],[20.7268291,63.490303],[20.7438099,63.4928634],[20.7607908,63.4954235],[20.7777716,63.4979834],[20.7947524,63.5005431],[20.8117332,63.5031025],[20.8287141,63.5056617],[20.8456949,63.5082207],[20.8626757,63.5107794],[20.8796565,63.5133379],[20.8966374,63.5158962],[20.9136182,63.5184543],[20.9362094,63.5218571],[20.9517015,63.525879],[20.9671936,63.5299002],[20.9826857,63.533921],[20.9981777,63.5379411],[21.0136699,63.5419606],[21.0291619,63.5459796],[21.044654,63.5499981],[21.0601461,63.5540159],[21.0756382,63.5580332],[21.0911303,63.5620499],[21.1066224,63.5660661],[21.1221145,63.5700817],[21.1376065,63.5740967],[21.1530986,63.5781111],[21.1685907,63.582125],[21.1840828,63.5861383],[21.1995749,63.5901511],[21.215067,63.5941632],[21.2305591,63.5981749],[21.2460512,63.6021859],[21.2615433,63.6061964],[21.2770353,63.6102063],[21.2925274,63.6142156],[21.3080195,63.6182244],[21.3235116,63.6222326],[21.3390037,63.6262403],[21.3571417,63.6309317],[21.3699879,63.6342539],[21.38548,63.6382598],[21.4009721,63.6422652],[21.4164641,63.64627],[21.4319562,63.6502742],[21.4474483,63.6542779],[21.4629404,63.658281],[21.4784325,63.6622836],[21.4962196,63.6668783],[21.5994992,63.6702189],[21.6599031,63.6723045],[21.7722407,63.6867619],[21.8849967,63.7014731],[21.9396332,63.7355536],[21.9787569,63.7599523],[22.0021179,63.7744577],[22.0612346,63.8110677],[22.0965521,63.8329791],[22.12012,63.8475914],[22.1461226,63.8773249],[22.1721251,63.9070269],[22.203216,63.9422118],[22.2131144,63.951849],[22.2240089,63.9610826],[22.2549736,63.9857179],[22.2692395,63.9964854],[22.2778973,64.002781],[22.287872,64.0093865],[22.3399034,64.0424227],[22.3558581,64.0519168],[22.3652261,64.0569797],[22.3746336,64.0617923],[22.3857658,64.067059],[22.3967908,64.0718931],[22.4115021,64.0778352],[22.4234856,64.0823767],[22.4550357,64.0937947],[22.4999998,64.1088395],[22.5316697,64.1194313],[22.5489042,64.1249122],[22.5635398,64.1291344],[22.579417,64.1333313],[22.5966375,64.1375005],[22.6877648,64.1581728],[22.7788929,64.1789752],[22.8694475,64.1994198],[22.9611467,64.2200974],[22.965913,64.2461008],[22.9706794,64.2720798],[22.9754457,64.2980344],[22.9802121,64.3239646],[22.9849784,64.3498704],[23.0017803,64.3878964],[23.0151648,64.4040067],[23.0276623,64.4190409],[23.0625723,64.4456638],[23.0981799,64.4654203],[23.1409657,64.4837507],[23.2060016,64.5042666],[23.3109678,64.5312008],[23.4159341,64.5581085],[23.5209003,64.5849897],[23.6258665,64.6118443],[23.6907038,64.6287489],[23.835799,64.6654741],[23.8626586,64.7222273],[23.868524,64.733028],[23.8882983,64.7652798],[23.9082548,64.7977531],[23.928487,64.8306193],[23.943401,64.85478],[23.968583,64.8954549],[23.9888695,64.9281475],[24.0089643,64.9604749],[24.0385953,65.0079495],[24.0496998,65.0253865],[24.0697221,65.0575011],[24.0838675,65.0801661],[24.0943866,65.1118905],[24.099536,65.1274068],[24.105079,65.1440987],[24.1203024,65.1900741],[24.1284767,65.2145896],[24.1332264,65.2288625],[24.1374975,65.2416396],[24.1478654,65.2725921],[24.1545056,65.2924777],[24.1501263,65.337276],[24.1482945,65.3563257],[24.1451295,65.3888008],[24.1327528,65.5153738],[24.1360841,65.5303746],[24.1426527,65.5533091],[24.16161,65.619283],[24.177685,65.66036],[24.1666485,65.7027056],[24.172185,65.725278],[24.1539288,65.7462363],[24.1430038,65.7587702],[24.131804,65.771613],[24.128024,65.784611],[24.133744,65.79668],[24.143488,65.802596],[24.155324,65.815501],[24.1490124,65.8324762],[24.1385329,65.8456166],[24.1279252,65.8493686],[24.1266765,65.8593067],[24.1363152,65.8629578],[24.1478157,65.8682175],[24.140105,65.8747497],[24.1342387,65.8846296],[24.1267288,65.8913936],[24.1168922,65.8966508],[24.113612,65.9062306],[24.1145167,65.9170431],[24.1175098,65.9271176],[24.1083893,65.9316098],[24.0982984,65.9295647],[24.088436,65.9312179],[24.0797569,65.9375827],[24.0724326,65.9452839],[24.0625444,65.9486229],[24.0529124,65.9529809],[24.0456539,65.9603126],[24.0431534,65.9711769],[24.0529019,65.9745927],[24.0497985,65.9841032],[24.0491587,65.9949684],[24.043555,66.0035386],[24.0353868,66.010522],[24.0252865,66.0164545],[24.0155695,66.0219532],[24.0069278,66.0282366],[23.998432,66.0337202],[23.9903919,66.041105],[23.9840655,66.0503977],[23.9762592,66.0570329],[23.966591,66.0619183],[23.957335,66.0686471],[23.9468122,66.0722557],[23.9372136,66.0785144],[23.9366785,66.0888365],[23.9391563,66.0985679],[23.9451409,66.1072977],[23.9359463,66.1120299],[23.9407675,66.1208488],[23.9322868,66.1266927],[23.922078,66.1321598],[23.9160276,66.1401775],[23.926344,66.1443348],[23.92592,66.1543394],[23.9182106,66.1614099],[23.9076689,66.1633603],[23.897707,66.1650952],[23.8878268,66.1676549],[23.8776559,66.1657604],[23.8671808,66.1652754],[23.8590671,66.1713047],[23.8489524,66.1710657],[23.838553,66.1704442],[23.8278744,66.171491],[23.8186425,66.1754484],[23.8075902,66.1785764],[23.7960433,66.1825231],[23.7829214,66.1867989],[23.7717325,66.1887632],[23.7581877,66.1912981],[23.7453098,66.1926582],[23.7349273,66.1933761],[23.726571,66.1999492],[23.7303791,66.2093829],[23.7211317,66.2153805],[23.7093895,66.217135],[23.7002725,66.2227187],[23.6933041,66.2308564],[23.6994033,66.2393483],[23.6940697,66.2479103],[23.6841832,66.2527601],[23.6742311,66.2554718],[23.6704602,66.2653101],[23.6708314,66.2756184],[23.664872,66.2842513],[23.6566384,66.291949],[23.6485842,66.2980935],[23.6500052,66.3080698],[23.656876,66.3166416],[23.6587299,66.3271619],[23.6597574,66.3372194],[23.6574423,66.3474441],[23.6624414,66.3563313],[23.6713695,66.3640049],[23.6782665,66.3718264],[23.6858327,66.3792395],[23.6879434,66.3896029],[23.6791403,66.3943682],[23.6693988,66.3970006],[23.6619149,66.4056116],[23.6563323,66.4140841],[23.6476842,66.4215746],[23.6428911,66.4308238],[23.6479468,66.440003],[23.6498046,66.4498648],[23.6546348,66.4590257],[23.6643322,66.4626805],[23.6752877,66.4658227],[23.6839358,66.4715773],[23.6934853,66.4747332],[23.7034957,66.4749524],[23.714297,66.4748352],[23.7154643,66.485127],[23.7187043,66.4949706],[23.7264163,66.5033097],[23.7357418,66.5075425],[23.7453395,66.5040741],[23.7552899,66.5062164],[23.7647482,66.5111266],[23.7753372,66.514112],[23.7852784,66.5154078],[23.7956102,66.5177276],[23.7910694,66.5266944],[23.7854449,66.5357675],[23.795247,66.5378876],[23.80477,66.5417458],[23.8148131,66.5456284],[23.8250634,66.5485019],[23.8338923,66.5534368],[23.8440421,66.5551576],[23.8545307,66.5561831],[23.8611723,66.5638598],[23.8684312,66.571493],[23.8757376,66.5788184],[23.8760412,66.5890341],[23.8763889,66.5991413],[23.881224,66.6079082],[23.8806545,66.6186958],[23.8740415,66.6264111],[23.8705334,66.6358776],[23.8688051,66.6459643],[23.8666769,66.6561462],[23.8721237,66.6648862],[23.8786872,66.6728909],[23.8876567,66.6779494],[23.8882576,66.6879627],[23.8910565,66.6976319],[23.89735,66.7057972],[23.9007949,66.7153822],[23.9032215,66.7255934],[23.895234,66.7326042],[23.8884687,66.7407365],[23.88585,66.750403],[23.8785903,66.7575473],[23.8848168,66.7658435],[23.8941605,66.769895],[23.9061819,66.7702641],[23.9161658,66.7749947],[23.9116445,66.7846791],[23.9086966,66.7943971],[23.918911,66.7959362],[23.9297787,66.7940837],[23.9395597,66.7888504],[23.9517913,66.7838598],[23.9618582,66.7824166],[23.9751957,66.7834069],[23.9828478,66.7901198],[23.9785301,66.7991867],[23.9878549,66.8034642],[23.9896181,66.8138501],[23.9948164,66.822541],[23.9870691,66.8298191],[23.9781482,66.8371464],[23.9707214,66.843988],[23.9656218,66.8528534],[23.9557855,66.8608186],[23.9490046,66.8690296],[23.9418752,66.8776652],[23.9341263,66.8846114],[23.9232825,66.8860347],[23.9125121,66.889855],[23.9056119,66.897864],[23.8969143,66.9028618],[23.8854283,66.9084063],[23.8766737,66.9132773],[23.8664842,66.9174518],[23.8633536,66.9273163],[23.8644393,66.9373676],[23.8617208,66.9473754],[23.8567288,66.956185],[23.8469418,66.9597247],[23.836867,66.959485],[23.8269115,66.9625959],[23.8216218,66.9713868],[23.8160264,66.9796857],[23.8060922,66.9816611],[23.7997866,66.9898789],[23.790077,66.9948052],[23.7801707,66.9978821],[23.7685172,67.0013013],[23.7594851,67.0059381],[23.7513256,67.012046],[23.7402169,67.0169887],[23.7322377,67.0241014],[23.7244833,67.0315366],[23.7149679,67.0348611],[23.7121913,67.0444872],[23.7022436,67.0476099],[23.69379,67.0544286],[23.6839703,67.05803],[23.6744103,67.064306],[23.6676891,67.0730789],[23.6671339,67.0833275],[23.6610544,67.0914896],[23.656903,67.100605],[23.6481088,67.1061086],[23.6384438,67.1100489],[23.6286711,67.1155505],[23.6219667,67.1243755],[23.612598,67.1291086],[23.6042009,67.1354679],[23.5947006,67.1404053],[23.5864042,67.1479423],[23.5776662,67.1528838],[23.5693025,67.1590417],[23.559609,67.1643354],[23.5518581,67.1725988],[23.5585516,67.1809918],[23.5677161,67.1853893],[23.5776557,67.187487],[23.5879369,67.1906999],[23.5875806,67.2008826],[23.5871991,67.2114101],[23.5769796,67.2165793],[23.5682887,67.2215697],[23.5569606,67.2239652],[23.5462604,67.2251878],[23.5545824,67.2309816],[23.5607759,67.2391222],[23.5576205,67.2492909],[23.5688883,67.2533324],[23.563241,67.2626164],[23.5729339,67.2668346],[23.5829657,67.2703521],[23.5931298,67.2708552],[23.6030685,67.2728966],[23.6133498,67.2733477],[23.6236784,67.2718749],[23.6348053,67.2736684],[23.6444768,67.2772177],[23.6549126,67.2789189],[23.6650323,67.2797037],[23.6759765,67.2820864],[23.687141,67.2828506],[23.697821,67.2832227],[23.7078952,67.2823385],[23.7188036,67.2821954],[23.7279226,67.2871022],[23.7357015,67.2947621],[23.7400062,67.3041548],[23.7456735,67.3128582],[23.7497174,67.3222619],[23.7573212,67.3287831],[23.7671721,67.3330245],[23.7751108,67.339312],[23.7657729,67.3439749],[23.7569428,67.3493567],[23.7468822,67.3482189],[23.7375872,67.3525401],[23.7341297,67.3622862],[23.7308093,67.3720326],[23.7278001,67.3819417],[23.7188551,67.3892043],[23.7277763,67.3937492],[23.7366627,67.3992136],[23.7463604,67.4049858],[23.7517269,67.4138285],[23.7557777,67.4233974],[23.7645827,67.4282139],[23.7567818,67.4345596],[23.7466175,67.4366855],[23.7360436,67.4389267],[23.7240343,67.4422596],[23.7141897,67.4446176],[23.7037932,67.4458792],[23.6930465,67.4443038],[23.6821658,67.4421886],[23.6721477,67.4429104],[23.6619664,67.4458569],[23.6516152,67.4468809],[23.6415495,67.4474929],[23.6315086,67.4490995],[23.621513,67.4511534],[23.6108439,67.4520514],[23.6009453,67.4537918],[23.590001,67.4532864],[23.5790809,67.4543597],[23.5690573,67.4578307],[23.5585781,67.4599628],[23.5475079,67.4611976],[23.5369712,67.4606348],[23.5271467,67.456789],[23.5176115,67.4525316],[23.5096567,67.4464646],[23.4991287,67.4460615],[23.489211,67.4481373],[23.479088,67.4511985],[23.4666488,67.452764],[23.4554099,67.4551208],[23.4461032,67.4591162],[23.435356,67.4623707],[23.4254624,67.4650524],[23.4152704,67.4661538],[23.4063526,67.4712781],[23.4013337,67.4801846],[23.3962538,67.4897542],[23.4044319,67.49572],[23.4129552,67.5025632],[23.4245053,67.5043825],[23.4336752,67.5085154],[23.4368894,67.5182002],[23.4475824,67.5215645],[23.4575142,67.5256793],[23.4675734,67.5279642],[23.4763201,67.5332072],[23.4806432,67.5424077],[23.4703187,67.5475559],[23.4618595,67.5534982],[23.4589814,67.5630965],[23.4690014,67.5658649],[23.4795332,67.5659591],[23.4902942,67.5665554],[23.500075,67.5633612],[23.5103651,67.5640639],[23.5193198,67.5695197],[23.5275606,67.5760876],[23.537367,67.5781148],[23.5443329,67.5856309],[23.5418002,67.5966554],[23.5421559,67.6067623],[23.5494293,67.6140436],[23.5570808,67.6215782],[23.5466008,67.6226377],[23.5401842,67.6309915],[23.5320843,67.6378705],[23.5227799,67.6423057],[23.513657,67.6470821],[23.5055865,67.654337],[23.495903,67.6616243],[23.4951083,67.6716041],[23.4980232,67.6813896],[23.4896007,67.6881741],[23.4876513,67.6980592],[23.47886,67.7036943],[23.4804507,67.7140181],[23.4784019,67.7239575],[23.4830395,67.7333185],[23.4777435,67.7418146],[23.486619,67.7472005],[23.4902533,67.7576547],[23.4881948,67.76792],[23.4847529,67.7785942],[23.4925367,67.7849829],[23.4898164,67.7949945],[23.4797917,67.80106],[23.4766875,67.8108545],[23.4743905,67.8206698],[23.4823143,67.8277778],[23.4795846,67.8379867],[23.486561,67.8454158],[23.4905327,67.85498],[23.4946552,67.8642779],[23.5037272,67.8692889],[23.5073514,67.8787934],[23.5161433,67.8840002],[23.5264003,67.8871267],[23.5363904,67.8890675],[23.5460351,67.891995],[23.554162,67.8982029],[23.5645637,67.8945777],[23.5746552,67.8926568],[23.5876923,67.8957306],[23.5949111,67.902959],[23.6049596,67.9050932],[23.6153883,67.9074963],[23.6252859,67.9106882],[23.6366236,67.9136832],[23.6453001,67.9203908],[23.6497027,67.9304666],[23.6569992,67.9377102],[23.6587296,67.9476334],[23.651426,67.9551245],[23.6452607,67.9634792],[23.6344091,67.9664226],[23.6241455,67.9679303],[23.6106642,67.9702578],[23.5994369,67.9721751],[23.5884712,67.97219],[23.5771773,67.9715748],[23.5674478,67.9756466],[23.557028,67.9808838],[23.5450388,67.9881452],[23.537129,67.9944811],[23.5368283,68.0046049],[23.5270043,68.0073642],[23.5164242,68.0091157],[23.5061239,68.0111728],[23.4956687,68.0140367],[23.4853248,68.0156264],[23.4748142,68.0184709],[23.4649536,68.0223569],[23.4613216,68.0318612],[23.4503139,68.0352903],[23.4401843,68.0375964],[23.4299025,68.0379268],[23.419285,68.0405716],[23.4092767,68.0414936],[23.3975051,68.0440084],[23.3866368,68.0489308],[23.3811057,68.057658],[23.3709652,68.0618632],[23.3679012,68.0716036],[23.3612264,68.0793923],[23.3560306,68.0882459],[23.347786,68.0940896],[23.3379852,68.0992283],[23.3349975,68.1090753],[23.3275016,68.1160707],[23.3262811,68.1261789],[23.3212407,68.1351164],[23.3127043,68.1430006],[23.3048706,68.1496136],[23.2946993,68.1494165],[23.28608,68.1547464],[23.2757657,68.1574079],[23.2650786,68.1567757],[23.2562913,68.1517552],[23.2459146,68.148522],[23.234046,68.1486004],[23.2237785,68.1468401],[23.2135724,68.1462078],[23.2043621,68.1412693],[23.1939961,68.1381611],[23.1833664,68.137328],[23.1723928,68.1337105],[23.1623202,68.1336495],[23.1527298,68.1366057],[23.1479638,68.1454313],[23.1414881,68.1532451],[23.1440137,68.1631436],[23.1450729,68.1732363],[23.1442699,68.1834953],[23.1513513,68.191637],[23.1588214,68.1998523],[23.1482997,68.2008476],[23.1408649,68.2079934],[23.1418517,68.2179836],[23.1482924,68.225913],[23.1489511,68.2372059],[23.1434926,68.2468281],[23.133473,68.2486689],[23.12234,68.24969],[23.1105676,68.252286],[23.0998525,68.2588359],[23.0900937,68.2617451],[23.0788704,68.2661732],[23.0724743,68.2747184],[23.0641776,68.2803809],[23.066132,68.2903901],[23.0669275,68.3010198],[23.0583385,68.3065756],[23.0480282,68.307058],[23.0378512,68.306887],[23.027935,68.3090302],[23.0176654,68.3118279],[23.0069369,68.3146772],[22.9973017,68.3176553],[22.9861044,68.3203913],[22.9767803,68.3246637],[22.9703769,68.3324633],[22.9600822,68.3326898],[22.9484132,68.3328802],[22.9373793,68.3333888],[22.9265641,68.3331431],[22.9138486,68.3346443],[22.9060186,68.3424249],[22.895996,68.3464032],[22.8864452,68.349981],[22.8759536,68.3517423],[22.8663753,68.3558689],[22.8571032,68.3596957],[22.8458484,68.3605356],[22.8368289,68.3650734],[22.8391823,68.3748526],[22.8453876,68.3830756],[22.8352787,68.3856047],[22.8247942,68.3878077],[22.8138923,68.3887264],[22.8040999,68.3923176],[22.7936049,68.3930559],[22.7831624,68.3910011],[22.7728219,68.3873004],[22.7627894,68.3848274],[22.7514039,68.3848136],[22.7405717,68.384806],[22.7299629,68.3866434],[22.7215327,68.3952501],[22.7111722,68.3973407],[22.6994873,68.3982507],[22.6907853,68.4063849],[22.6807941,68.4103476],[22.669845,68.4119109],[22.6596803,68.4141937],[22.6484465,68.4161909],[22.6395839,68.4225244],[22.6429979,68.4326134],[22.6317424,68.4347233],[22.6210655,68.4336913],[22.6122744,68.4270856],[22.6010906,68.4255383],[22.5906143,68.425293],[22.5799505,68.4224314],[22.5692654,68.4238371],[22.5608108,68.4311963],[22.5498822,68.4348839],[22.537492,68.4342575],[22.5271659,68.437364],[22.5173912,68.4397241],[22.5061466,68.4422203],[22.494244,68.4429195],[22.4790245,68.4430549],[22.4675082,68.4416006],[22.4591086,68.447896],[22.4495542,68.4526441],[22.440328,68.4581778],[22.4320543,68.4649084],[22.4218438,68.463242],[22.4119214,68.4668104],[22.4008944,68.4655474],[22.3917591,68.4607909],[22.3824562,68.4565068],[22.373041,68.4522967],[22.3634053,68.4479367],[22.3526695,68.4447274],[22.3451466,68.4516316],[22.3464322,68.4619007],[22.3446584,68.4717604],[22.3433302,68.482234],[22.3333094,68.4810583],[22.3231469,68.4812788],[22.312963,68.4822684],[22.3023327,68.4835169],[22.2916221,68.4829703],[22.2824433,68.4785122],[22.2721734,68.4797647],[22.2620578,68.4796744],[22.2520791,68.4823642],[22.2418941,68.4789613],[22.2322071,68.4762298],[22.2203697,68.4732453],[22.2106369,68.47671],[22.2004695,68.4797978],[22.1896756,68.4795792],[22.1790543,68.4778511],[22.1689074,68.4743479],[22.1579393,68.4714733],[22.1467628,68.4708348],[22.1363632,68.470841],[22.1255594,68.4743815],[22.118207,68.4816136],[22.1079588,68.4801463],[22.0975589,68.4812271],[22.0865454,68.4820991],[22.0759058,68.4823817],[22.0655285,68.4801166],[22.0542965,68.4792471],[22.0427195,68.4798476],[22.0332384,68.4847427],[22.025048,68.4908218],[22.0157097,68.4962023],[22.0093093,68.5050152],[22.005158,68.5147253],[21.9987975,68.5241456],[22.0001405,68.5346517],[21.9896824,68.5350752],[21.9811042,68.5408915],[21.9720031,68.5452906],[21.9643623,68.5522591],[21.952116,68.555175],[21.9414115,68.5587144],[21.9324401,68.5643861],[21.9231514,68.5686897],[21.9129239,68.572496],[21.9027393,68.5788589],[21.8926459,68.5830311],[21.8807238,68.5848329],[21.8700173,68.5848246],[21.8599263,68.5889736],[21.8489196,68.5898133],[21.8372367,68.5911209],[21.8270252,68.5899445],[21.8155886,68.5897756],[21.8042552,68.5886935],[21.7942033,68.586251],[21.7841781,68.5857918],[21.7726706,68.5855703],[21.7609709,68.5872781],[21.7504356,68.5875948],[21.7398508,68.5888697],[21.7289628,68.5896322],[21.7189974,68.5905262],[21.7090947,68.5944849],[21.7004431,68.6004701],[21.6969293,68.6107444],[21.7053485,68.6161736],[21.7095097,68.62546],[21.7006505,68.6306281],[21.6908886,68.6331038],[21.6810495,68.6364015],[21.6709032,68.6390136],[21.6618624,68.643692],[21.6526913,68.6504192],[21.6425804,68.6507513],[21.6327127,68.6541334],[21.6232832,68.6585945],[21.6150866,68.6649175],[21.603956,68.6667702],[21.5891159,68.6674268],[21.5783632,68.6692115],[21.5644033,68.6754744],[21.5543269,68.6777119],[21.5441341,68.6761141],[21.5337358,68.6755396],[21.5227727,68.6773272],[21.5117489,68.6757282],[21.5007953,68.6765992],[21.4910753,68.6794928],[21.4800037,68.6813382],[21.4692393,68.6818738],[21.459033,68.6853926],[21.4485631,68.6880713],[21.4382717,68.6896567],[21.4274545,68.6938198],[21.4218784,68.703921],[21.412677,68.710928],[21.4158536,68.7206514],[21.413555,68.7317247],[21.4069728,68.7395696],[21.4111916,68.7490139],[21.4028756,68.7564527],[21.393259,68.7601877],[21.383867,68.7647532],[21.3733329,68.7662706],[21.3628732,68.7671751],[21.3528526,68.7651318],[21.3414319,68.7631011],[21.3313424,68.7600193],[21.3204897,68.7593659],[21.3100021,68.760236],[21.2989873,68.7623929],[21.2911729,68.7687346],[21.2828297,68.7743714],[21.2736006,68.778781],[21.2654668,68.7847164],[21.2589277,68.7938901],[21.2531506,68.8024992],[21.2444666,68.8075534],[21.2360114,68.8132223],[21.2259033,68.8160341],[21.2157571,68.8170536],[21.2045835,68.8195882],[21.1953157,68.8235695],[21.1849373,68.8251326],[21.1764478,68.8310541],[21.1668839,68.8344572],[21.1571407,68.8373041],[21.1466425,68.8396952],[21.1390676,68.8469756],[21.1286195,68.8535845],[21.1187226,68.8559227],[21.1081598,68.8593483],[21.0978963,68.8606377],[21.0878429,68.8622784],[21.0780467,68.8649165],[21.0719887,68.872935],[21.0622299,68.8762698],[21.052192,68.8789065],[21.0422893,68.8820572],[21.0320425,68.8826363],[21.0231162,68.8878663],[21.0125769,68.8909938],[21.0029319,68.8942959],[20.9926504,68.897339],[20.9842653,68.8918172],[20.9712882,68.8927509],[20.9600118,68.8917443],[20.9505047,68.896647],[20.9397336,68.8971421],[20.9268673,68.8977974],[20.9160255,68.8971652],[20.9069311,68.8918083],[20.8955824,68.8912448],[20.880433,68.8962778],[20.8907497,68.8966681],[20.8971705,68.9045509],[20.8890881,68.9106572],[20.8813438,68.9178776],[20.8715485,68.9209152],[20.8603007,68.9232766],[20.850498,68.9269768],[20.8478809,68.9375266],[20.8579496,68.9407384],[20.8690194,68.9435309],[20.8846101,68.9419359],[20.8962526,68.9479647],[20.9063422,68.9531732],[20.9137615,68.9619596],[20.9086165,68.9711467],[20.8970527,68.9770799],[20.8880032,68.9814471],[20.8784597,68.9868646],[20.8683265,68.9869369],[20.8582596,68.9898785],[20.8475599,68.9915216],[20.837566,68.9953102],[20.8290352,69.0006371],[20.8203666,69.0059045],[20.8111358,69.0188427],[20.8004568,69.0225192],[20.7883141,69.026517],[20.7749168,69.0326514],[20.7645682,69.0341154],[20.7504645,69.0356326],[20.7358421,69.0370061],[20.7188931,69.0397817],[20.7078096,69.0429236],[20.6977021,69.0441096],[20.6840564,69.0429747],[20.6733062,69.043316],[20.6623635,69.0431172],[20.6493202,69.0440328],[20.6386861,69.0447774],[20.6275435,69.0458429],[20.6160947,69.0474601],[20.6059946,69.0500682],[20.5957368,69.051158],[20.58563,69.0530556],[20.5756066,69.0533833],[20.5632799,69.0564056],[20.5523258,69.0600767],[20.5968853,69.0762589],[20.6189817,69.084271],[20.6319279,69.0889646],[20.6415424,69.0924469],[20.6535556,69.0967907],[20.6674879,69.101829],[20.687954,69.1092103],[20.7061843,69.115781],[20.7173208,69.1197912],[20.7498373,69.1116962],[20.7619469,69.1086762],[20.7892639,69.1018583],[20.8135701,69.0957901],[20.8345589,69.0905487],[20.888465,69.0771159],[20.9463726,69.0631586],[20.988566,69.0529833],[21.057543,69.0362897],[21.0841312,69.0715767],[21.1086742,69.1039291],[21.0556244,69.1220853],[21.0467326,69.1395211],[21.0317994,69.1527745],[21.0092338,69.1727684],[20.9875741,69.1919274],[20.9956555,69.2075627],[21.0033124,69.2223381],[21.0263091,69.2319234],[21.0361945,69.2360294],[21.0961691,69.260912],[21.2080241,69.292115],[21.2650054,69.3080286],[21.2788202,69.3118841],[21.3656533,69.3026256],[21.4416544,69.2945589],[21.5105425,69.2879145],[21.5552825,69.2835734],[21.5860449,69.2805796],[21.6270859,69.2765883],[21.6591391,69.2559218],[21.6680064,69.2501954],[21.6817827,69.2412959],[21.6942424,69.2332693],[21.7233411,69.2144897],[21.7565318,69.1955657],[21.7692909,69.1882866],[21.7895505,69.1767105],[21.8072948,69.1665614],[21.8463993,69.1441592],[21.9019474,69.1153809],[21.938016,69.0966422],[21.9839517,69.0730775],[22.007396,69.0585181],[22.0245545,69.0481393],[22.0364015,69.0409624],[22.0608117,69.0261572],[22.0906858,69.007998],[22.1619782,68.9649862],[22.1795326,68.9475503],[22.1873896,68.9292548],[22.1918678,68.9187737],[22.2649971,68.8739062],[22.2840578,68.8621746],[22.3407806,68.8272257],[22.3479102,68.8049368],[22.3537156,68.7870309],[22.3641867,68.7516038],[22.3745217,68.7166666],[22.4047437,68.721914],[22.4343293,68.7270464],[22.5129257,68.7406314],[22.5353893,68.7445126],[22.5932866,68.7293863],[22.6057666,68.7261209],[22.6354501,68.7202611],[22.6576955,68.7158997],[22.6859635,68.7103266],[22.6997926,68.7075959],[22.7151336,68.7045567],[22.745294,68.6985847],[22.7706492,68.693546],[22.800824,68.6875481],[22.8747281,68.6881283],[22.9550779,68.6887234],[23.0106212,68.6891112],[23.0544424,68.6850813],[23.0672989,68.6786328],[23.1019132,68.6612577],[23.1255599,68.6494743],[23.1675822,68.6285189],[23.2207991,68.6411533],[23.2402821,68.6457792],[23.3207182,68.6649617],[23.3398881,68.6695419],[23.3637534,68.6752253],[23.389736,68.6809747],[23.4406356,68.6921635],[23.4880725,68.6949064],[23.4985587,68.6955127],[23.5106624,68.6962125],[23.5287945,68.6972608],[23.5458265,68.6982454],[23.5895064,68.7007451],[23.6735202,68.7055214],[23.7310635,68.7507514],[23.7433939,68.769723],[23.7538359,68.7857592],[23.7753915,68.8188513],[23.813853,68.8259493],[23.8714608,68.8365192],[23.9493651,68.8299988],[23.9833308,68.8271434],[24.0147299,68.8110977],[24.0427445,68.7967736],[24.0755916,68.7799668],[24.1585511,68.7897096],[24.1529623,68.753591],[24.1770543,68.7499724],[24.2080495,68.7453076],[24.2221504,68.7393312],[24.2509648,68.7271321],[24.2777832,68.7220324],[24.30226,68.7173502],[24.3268996,68.7147005],[24.3828392,68.7086566],[24.4010589,68.7066877],[24.4323782,68.7032908],[24.4496373,68.7014675],[24.4676302,68.6995666],[24.4925602,68.6964513],[24.5091612,68.6943659],[24.5228179,68.6926539],[24.576058,68.6859783],[24.6083879,68.6819016],[24.6584152,68.6688757],[24.6715682,68.6654497],[24.7164179,68.6537647],[24.7834246,68.6362346],[24.7931538,68.6266558],[24.8011529,68.6187647],[24.8146345,68.6053607],[24.8285484,68.5912514],[24.8571661,68.5622098],[24.8814979,68.5581805],[24.9031658,68.5545918],[24.9050854,68.5700172],[24.9065664,68.5819055],[24.9253505,68.607725],[24.9353333,68.611414],[24.945329,68.612107],[24.9549539,68.6150577],[24.9651606,68.6163459],[24.9751592,68.6165144],[24.9849356,68.6143291],[24.9948573,68.6123748],[25.0048196,68.6137117],[25.0138134,68.6182474],[25.022234,68.6237704],[25.0323648,68.6231199],[25.042356,68.6253689],[25.0525215,68.6247666],[25.0623947,68.6211746],[25.0726108,68.6224252],[25.0819332,68.6264883],[25.0888379,68.6338603],[25.0986185,68.636415],[25.1088996,68.6372919],[25.115937,68.6445756],[25.1139307,68.6544111],[25.1141455,68.6649673],[25.1112541,68.6747911],[25.1101198,68.6849327],[25.1141448,68.6944843],[25.113987,68.7046155],[25.1212763,68.711752],[25.1285366,68.7193849],[25.1232717,68.7281021],[25.1257356,68.7378114],[25.1229698,68.7476218],[25.1260505,68.75722],[25.1346187,68.7623973],[25.1365844,68.7724195],[25.1418177,68.7811359],[25.1472505,68.7895959],[25.154441,68.7970006],[25.1635876,68.8011778],[25.1733376,68.8044761],[25.183032,68.8079936],[25.1944649,68.8096495],[25.2036926,68.8140897],[25.212578,68.8198281],[25.2222562,68.8232852],[25.2317831,68.826542],[25.2368794,68.8353657],[25.2444856,68.8418936],[25.2542777,68.8448414],[25.2645871,68.8491917],[25.2744038,68.8526146],[25.2852026,68.8547789],[25.2937681,68.8600978],[25.3041725,68.8625182],[25.3142235,68.8636484],[25.3241899,68.8658535],[25.3340778,68.8689213],[25.3453765,68.8713194],[25.3555794,68.8741452],[25.3668163,68.8769585],[25.3774738,68.8812629],[25.3872795,68.8833441],[25.3978352,68.8856016],[25.406028,68.892274],[25.416038,68.891758],[25.426017,68.893827],[25.436021,68.894614],[25.446103,68.897263],[25.456227,68.899361],[25.466012,68.901951],[25.477952,68.90467],[25.488867,68.9046],[25.497244,68.898532],[25.508109,68.897031],[25.517526,68.891878],[25.527682,68.889348],[25.538021,68.886947],[25.548215,68.886644],[25.559347,68.886516],[25.569805,68.885787],[25.580364,68.884348],[25.590358,68.883397],[25.600329,68.884873],[25.60965,68.889237],[25.619584,68.890805],[25.627699,68.897471],[25.636376,68.902801],[25.646688,68.904497],[25.655495,68.909849],[25.660292,68.918817],[25.667593,68.925991],[25.674926,68.933166],[25.683859,68.939764],[25.690561,68.948757],[25.69945,68.954002],[25.707106,68.961009],[25.712404,68.969682],[25.711905,68.979675],[25.719866,68.985991],[25.728015,68.992472],[25.738268,68.995849],[25.747523,69.000671],[25.757936,69.004052],[25.767462,69.007957],[25.775207,69.014643],[25.773461,69.02449],[25.764728,69.029937],[25.754346,69.031151],[25.746899,69.038194],[25.750233,69.048088],[25.752393,69.058044],[25.74357,69.063307],[25.735558,69.069463],[25.72781,69.075907],[25.729308,69.086703],[25.726708,69.096862],[25.726831,69.107104],[25.72368,69.116654],[25.731788,69.123016],[25.735934,69.132147],[25.741699,69.140904],[25.735689,69.149212],[25.730673,69.15832],[25.724536,69.16658],[25.717756,69.174129],[25.711395,69.182089],[25.703993,69.189351],[25.694819,69.194755],[25.695157,69.204784],[25.70491,69.207377],[25.707091,69.217281],[25.710773,69.227207],[25.702704,69.233317],[25.707344,69.242714],[25.702236,69.251365],[25.711234,69.256705],[25.721062,69.259065],[25.730144,69.263507],[25.732481,69.27407],[25.7387,69.282797],[25.745249,69.290888],[25.738204,69.298845],[25.74758,69.305013],[25.738497,69.309408],[25.741827,69.319065],[25.751699,69.3233],[25.758496,69.330908],[25.759967,69.340946],[25.770451,69.343198],[25.779075,69.349274],[25.786732,69.356056],[25.797295,69.356874],[25.807872,69.358285],[25.816283,69.365272],[25.81204,69.374592],[25.820556,69.379872],[25.830406,69.383539],[25.836947,69.39156],[25.846551,69.394507],[25.838422,69.40131],[25.830274,69.407247],[25.819514,69.405946],[25.809359,69.410394],[25.816314,69.417811],[25.806421,69.419399],[25.79731,69.424356],[25.808502,69.425935],[25.809231,69.436214],[25.817956,69.442069],[25.825855,69.449347],[25.830442,69.458497],[25.837521,69.469457],[25.848534,69.471774],[25.858998,69.473737],[25.863384,69.483569],[25.853409,69.487195],[25.849846,69.496912],[25.858155,69.503509],[25.859964,69.513533],[25.869475,69.517843],[25.876553,69.525322],[25.869672,69.532912],[25.860109,69.536999],[25.849889,69.53958],[25.840026,69.54527],[25.846811,69.552719],[25.858738,69.553357],[25.870067,69.553093],[25.880652,69.555308],[25.890973,69.558143],[25.901604,69.560694],[25.911118,69.564368],[25.922959,69.568975],[25.932941,69.571298],[25.941807,69.576984],[25.945761,69.586595],[25.952328,69.594482],[25.962256,69.597275],[25.970983,69.604137],[25.972986,69.614247],[25.963334,69.61836],[25.960745,69.628478],[25.959322,69.638682],[25.954037,69.647318],[25.944192,69.651589],[25.932562,69.65473],[25.921876,69.656315],[25.911445,69.656952],[25.900914,69.657951],[25.893209,69.667226],[25.902846,69.67229],[25.912781,69.675599],[25.92203,69.679417],[25.934136,69.681318],[25.944413,69.687699],[25.950537,69.696552],[25.960215,69.699253],[25.967952,69.706165],[25.979041,69.709406],[25.990247,69.714704],[25.999303,69.71939],[26.010512,69.722981],[26.022433,69.721892],[26.033103,69.721318],[26.043106,69.720332],[26.054508,69.721156],[26.064438,69.724445],[26.075612,69.725872],[26.085543,69.727987],[26.097338,69.728553],[26.107614,69.729738],[26.117311,69.732366],[26.128833,69.736153],[26.138949,69.740692],[26.147672,69.746674],[26.151184,69.756053],[26.162331,69.758289],[26.173247,69.758277],[26.183417,69.760246],[26.183526,69.770545],[26.192443,69.777065],[26.203169,69.77926],[26.213294,69.779471],[26.222901,69.785507],[26.229961,69.793374],[26.240218,69.79358],[26.248752,69.801383],[26.241181,69.808193],[26.245894,69.817369],[26.256525,69.818559],[26.268311,69.820543],[26.28024,69.824776],[26.290477,69.826486],[26.301248,69.828642],[26.311031,69.831031],[26.321115,69.834226],[26.331648,69.836229],[26.340989,69.841934],[26.3514,69.84568],[26.361496,69.844974],[26.370893,69.850301],[26.382011,69.853499],[26.390768,69.860816],[26.399748,69.865747],[26.405558,69.874925],[26.413715,69.881538],[26.416212,69.891519],[26.407783,69.898155],[26.416216,69.903839],[26.427228,69.90702],[26.437091,69.91032],[26.446481,69.915294],[26.456233,69.920163],[26.457718,69.930577],[26.463727,69.938929],[26.474149,69.941102],[26.485252,69.94394],[26.495245,69.945593],[26.505271,69.945863],[26.515621,69.945652],[26.526361,69.945909],[26.536958,69.946561],[26.547882,69.94725],[26.559246,69.949509],[26.570219,69.951997],[26.580758,69.953307],[26.590709,69.954952],[26.601789,69.956635],[26.612466,69.958286],[26.623545,69.95972],[26.633835,69.960295],[26.645844,69.961331],[26.656114,69.96207],[26.666146,69.962661],[26.676079,69.96462],[26.68596,69.959728],[26.695121,69.953473],[26.704559,69.947991],[26.715474,69.945268],[26.725808,69.945469],[26.736868,69.94762],[26.748037,69.949864],[26.757992,69.952631],[26.770021,69.955893],[26.782222,69.958169],[26.794589,69.958815],[26.805053,69.959093],[26.818055,69.958691],[26.833027,69.960043],[26.843153,69.960267],[26.853419,69.959946],[26.858245,69.950529],[26.859523,69.94058],[26.868862,69.93672],[26.878301,69.933415],[26.890389,69.932109],[26.902334,69.932982],[26.912434,69.934566],[26.923555,69.937492],[26.934224,69.939461],[26.944778,69.93951],[26.955831,69.939796],[26.966392,69.938829],[26.97772,69.936934],[26.988499,69.933573],[26.997964,69.928358],[27.006562,69.922143],[27.016138,69.916949],[27.026081,69.913398],[27.035612,69.910344],[27.046087,69.911504],[27.05558,69.915012],[27.065688,69.91798],[27.076538,69.918183],[27.087411,69.917355],[27.099937,69.917558],[27.11061,69.920868],[27.119476,69.926688],[27.129199,69.931854],[27.139793,69.932589],[27.150904,69.932529],[27.162661,69.934093],[27.173901,69.935939],[27.185187,69.938706],[27.197398,69.940255],[27.208464,69.942765],[27.218368,69.944456],[27.22821,69.94726],[27.240239,69.948525],[27.251408,69.949031],[27.262351,69.95002],[27.272928,69.950485],[27.285472,69.951749],[27.296889,69.953602],[27.303619,69.961495],[27.29409,69.965933],[27.286077,69.972369],[27.27944,69.980418],[27.288793,69.984518],[27.300498,69.987308],[27.311923,69.990413],[27.322365,69.989564],[27.333035,69.988535],[27.34448,69.989048],[27.356125,69.991062],[27.366648,69.994898],[27.378375,69.998518],[27.387922,70.001757],[27.397951,70.007816],[27.406995,70.013603],[27.41868,70.016662],[27.42856,70.019213],[27.439608,70.020338],[27.450921,70.020286],[27.462947,70.02031],[27.473109,70.021867],[27.486408,70.021555],[27.49911,70.021562],[27.510437,70.022305],[27.521217,70.022487],[27.532003,70.026377],[27.540159,70.03332],[27.540212,70.043834],[27.547424,70.051286],[27.554301,70.058984],[27.564979,70.061483],[27.574558,70.066493],[27.584984,70.068389],[27.595148,70.0698],[27.606176,70.072889],[27.615987,70.074998],[27.628958,70.074675],[27.640115,70.075602],[27.651313,70.075561],[27.662748,70.07693],[27.675437,70.077329],[27.686872,70.076944],[27.69779,70.075925],[27.708191,70.073113],[27.718262,70.070003],[27.728435,70.066652],[27.739328,70.064423],[27.750824,70.065645],[27.761759,70.067665],[27.774042,70.071333],[27.785378,70.074787],[27.797693,70.077306],[27.810043,70.078458],[27.820125,70.079442],[27.831977,70.079463],[27.844427,70.080923],[27.859372,70.082345],[27.870938,70.084682],[27.881282,70.085584],[27.89361,70.085998],[27.905657,70.086484],[27.917252,70.087461],[27.927503,70.089623],[27.938346,70.090321],[27.948291,70.091872],[27.9604365,70.089821],[27.9646585,70.0806939],[27.9769944,70.0542475],[27.9824139,70.0282116],[27.9842853,70.0139707],[28.0178795,69.9952384],[28.0324658,69.9877154],[28.0663471,69.970103],[28.1070893,69.9489225],[28.160713,69.9209937],[28.2488198,69.9018613],[28.2964969,69.8914824],[28.3452694,69.8808318],[28.3384067,69.8661497],[28.3304762,69.8491926],[28.3840435,69.8268292],[28.4042254,69.818425],[28.4439001,69.8118515],[28.4888526,69.8043869],[28.5152247,69.8000013],[28.6035966,69.7850403],[28.6444493,69.7781171],[28.6885895,69.7706388],[28.765458,69.75692],[28.8015608,69.7504592],[28.8944082,69.7338389],[28.9170033,69.7297606],[28.9899365,69.7182332],[29.033076,69.7113888],[29.1087786,69.6993016],[29.1339095,69.6953404],[29.1403856,69.6854051],[29.1462488,69.6764061],[29.1581929,69.6580471],[29.1705369,69.6390414],[29.1802266,69.62974],[29.1936333,69.616827],[29.20337,69.6074293],[29.2199395,69.591357],[29.2332384,69.578476],[29.2549224,69.5574777],[29.2712133,69.5418093],[29.2893956,69.5242628],[29.3158194,69.4984955],[29.3364956,69.4783227],[29.2950412,69.4498488],[29.2836988,69.4420359],[29.266414,69.4301355],[29.2193395,69.3976362],[29.1581513,69.3703476],[29.1077366,69.347722],[29.0578141,69.3253098],[28.992957,69.2962347],[28.9308537,69.268321],[28.8910496,69.2507376],[28.831539,69.2243617],[28.8312347,69.2113667],[28.8307287,69.1897375],[28.8303122,69.171902],[28.8254623,69.1600939],[28.8102054,69.1228451],[28.80543,69.1111558],[28.8353705,69.0901436],[28.8545771,69.0766388],[28.8775885,69.0690373],[28.9290846,69.0518486],[28.9129523,69.047352],[28.8942395,69.042151],[28.8695562,69.0352704],[28.8587236,69.0322471],[28.8440471,69.0281476],[28.8239163,69.0225271],[28.8055646,69.0173927],[28.7771585,69.009437],[28.7647671,69.0059607],[28.7474118,69.0010989],[28.7278255,68.9956031],[28.7047298,68.9891126],[28.6943095,68.9861836],[28.6741601,68.9805159],[28.6472801,68.9729445],[28.6254323,68.9667906],[28.6076832,68.9617769],[28.5923645,68.9574579],[28.5723351,68.9518033],[28.5578008,68.9476929],[28.5440669,68.9438082],[28.5224786,68.9376912],[28.4957911,68.9301243],[28.485866,68.9283084],[28.4601097,68.9235871],[28.4466762,68.9211198],[28.4259644,68.9173213],[28.4157885,68.9154506],[28.4320124,68.9061449],[28.4476976,68.8971288],[28.4643631,68.8875386],[28.4753181,68.8854768],[28.4939007,68.8855803],[28.5168001,68.8857063],[28.5503733,68.8858811],[28.5692287,68.8859761],[28.5857472,68.8860603],[28.6003424,68.8861327],[28.6235462,68.8862463],[28.6497413,68.8863674],[28.6612783,68.8864198],[28.6792319,68.8842203],[28.6929848,68.882536],[28.7070503,68.8808092],[28.7264753,68.8784237],[28.736686,68.877168],[28.7476192,68.8758262],[28.7596344,68.8743487],[28.7747072,68.8725098],[28.790043,68.8705943],[28.8007779,68.8692902],[28.7917036,68.8563875],[28.7814145,68.8416638],[28.7645622,68.8173232],[28.7507848,68.797297],[28.7446857,68.7884497],[28.7369481,68.777144],[28.7243743,68.7585643],[28.7131041,68.7420988],[28.7064121,68.7322367],[28.6849991,68.7172666],[28.670099,68.706829],[28.6605276,68.7001494],[28.6487942,68.6919093],[28.6396467,68.6855013],[28.6246504,68.6749906],[28.6041192,68.6605815],[28.5812341,68.6443864],[28.5641076,68.6323186],[28.5549847,68.6258241],[28.5409717,68.6159107],[28.5224688,68.6028055],[28.5089065,68.5931983],[28.4987175,68.5858982],[28.4851493,68.5762576],[28.4684793,68.5643649],[28.4513056,68.5520738],[28.4422444,68.5455824],[28.433932,68.539671],[28.4489903,68.5153202],[28.4571894,68.5018938],[28.4667284,68.4865121],[28.473177,68.4756822],[28.4795236,68.4654694],[28.4875338,68.4521969],[28.4959996,68.4384162],[28.516889,68.4044748],[28.5378053,68.3713902],[28.5652406,68.3281189],[28.5816986,68.3020289],[28.5942544,68.2811258],[28.6074508,68.259283],[28.6219446,68.2359927],[28.6461349,68.1963023],[28.7084312,68.185236],[28.7721204,68.1738689],[28.822153,68.1649405],[28.845613,68.1607543],[28.8855779,68.1536848],[28.9101253,68.1493241],[28.9251995,68.1466805],[28.9692735,68.1388397],[28.9855836,68.1359181],[29.0129184,68.1310522],[29.0259647,68.1287502],[29.0382384,68.1265119],[29.0714571,68.1205352],[29.1651284,68.1037112],[29.1911886,68.0989953],[29.2414703,68.0900038],[29.2535018,68.0878513],[29.2798518,68.0829821],[29.3129609,68.0770144],[29.3270935,68.0745393],[29.3602903,68.0479744],[29.3937768,68.0206587],[29.4565937,67.9701479],[29.4821869,67.9486818],[29.4930524,67.9398533],[29.526726,67.9122336],[29.5599675,67.8849555],[29.592338,67.8575435],[29.6255645,67.8302409],[29.6594151,67.8029567],[29.8119071,67.7480707],[29.8652664,67.7296189],[29.9040602,67.7146615],[29.9138643,67.711119],[29.9663557,67.6920255],[30.0044948,67.6781498],[30.0170617,67.6735368],[30.0080482,67.6579444],[30.0023575,67.6483065],[29.987374,67.623017],[29.9788382,67.6089132],[29.9718649,67.5971688],[29.9656862,67.586673],[29.9560834,67.5699372],[29.9492357,67.5575463],[29.9433661,67.5470018],[29.9357434,67.5329365],[29.9302252,67.5225248],[29.9065804,67.5119549],[29.8962305,67.507318],[29.8592452,67.4904293],[29.8400558,67.4791816],[29.8261878,67.4694515],[29.8033285,67.4533419],[29.7864904,67.4412599],[29.7782335,67.4354899],[29.762449,67.4248942],[29.7501872,67.4179154],[29.7389811,67.411617],[29.7280565,67.4055152],[29.7162036,67.3933559],[29.7074743,67.3881556],[29.6980179,67.3848454],[29.6876313,67.381034],[29.6788011,67.3745257],[29.6685989,67.3714533],[29.657971,67.3699682],[29.6516789,67.361849],[29.6444034,67.3548905],[29.6340481,67.3538127],[29.6241206,67.3524581],[29.6163929,67.3455892],[29.6263432,67.3437647],[29.6365342,67.3420834],[29.6445432,67.3359172],[29.634665,67.3328242],[29.6246672,67.330552],[29.615051,67.3272574],[29.6049253,67.3276019],[29.594883,67.3285005],[29.584246,67.3304677],[29.5765894,67.3238051],[29.566909,67.318832],[29.5762135,67.3135307],[29.5661187,67.3115541],[29.5557342,67.3122515],[29.5456412,67.3097666],[29.5356186,67.3103691],[29.5255379,67.3101335],[29.5184949,67.3029864],[29.5141216,67.2935419],[29.5071677,67.284853],[29.5162766,67.2805285],[29.4838816,67.2582127],[29.471695,67.2498058],[29.4624416,67.2436231],[29.4447991,67.231988],[29.4344901,67.2252652],[29.416583,67.213715],[29.395573,67.2001506],[29.3827613,67.1919273],[29.3420102,67.1661471],[29.3062388,67.1435414],[29.2639175,67.1167692],[29.2196687,67.089635],[29.1530641,67.0478151],[29.0936076,67.0091955],[29.0732544,66.9961539],[29.0636273,66.9856294],[29.0545208,66.9761032],[29.0476226,66.9686721],[29.0377223,66.9530644],[29.0338382,66.9407646],[29.0333891,66.9306068],[29.0358459,66.9183405],[29.04131,66.903327],[29.0463004,66.8903587],[29.0605195,66.8531024],[29.0850709,66.8315152],[29.1100755,66.8096216],[29.1142076,66.7997375],[29.1058564,66.7904473],[29.1313018,66.785995],[29.139609,66.7798075],[29.1496487,66.78029],[29.187411,66.7545818],[29.2048303,66.7419645],[29.2247152,66.7287548],[29.244055,66.7155542],[29.2633712,66.7024671],[29.2730207,66.6958805],[29.3019306,66.6762982],[29.3231909,66.6621388],[29.3550097,66.638089],[29.3662055,66.6218144],[29.3828052,66.5984607],[29.4061176,66.5961863],[29.416594,66.5924999],[29.4121451,66.582676],[29.4226045,66.5784599],[29.4720562,66.5438989],[29.4794645,66.5364993],[29.5195728,66.4962687],[29.5301089,66.4837678],[29.5406448,66.4712571],[29.5485753,66.4618294],[29.5568231,66.4520074],[29.5643348,66.4430552],[29.5779037,66.4268773],[29.5942818,66.4073887],[29.6047535,66.395754],[29.6137329,66.3858342],[29.6231239,66.375421],[29.633021,66.3638009],[29.6447087,66.346206],[29.6506933,66.3371479],[29.66217,66.3197844],[29.6710636,66.3089121],[29.6899005,66.2859266],[29.6975691,66.277088],[29.7069461,66.27337],[29.698597,66.2673696],[29.7100933,66.2678402],[29.7212918,66.2604454],[29.7469425,66.2434413],[29.7656965,66.2310597],[29.7761785,66.224101],[29.7963299,66.2112382],[29.8085689,66.2034307],[29.818142,66.1972935],[29.8293829,66.1900931],[29.8403235,66.1830943],[29.8519751,66.1756037],[29.866901,66.1657537],[29.8811413,66.1560199],[29.8933143,66.1477015],[29.9079049,66.137698],[29.9248356,66.1245953],[29.9351498,66.1074205],[29.9415023,66.0968112],[29.9467995,66.0879608],[29.9601185,66.0656945],[29.9655729,66.0565704],[29.9718073,66.0457455],[29.9771267,66.0355427],[29.9841424,66.0247481],[29.9905174,66.0129583],[29.9944353,65.9932721],[29.9971232,65.9788379],[30.0076961,65.9741027],[30.0242236,65.9666987],[30.0261927,65.9562522],[30.0381231,65.9396841],[30.0517917,65.9208114],[30.059374,65.910312],[30.0684527,65.8949786],[30.0750595,65.8792616],[30.0808668,65.8655491],[30.0871145,65.8506494],[30.0901271,65.8410183],[30.0945088,65.8270546],[30.0982896,65.814868],[30.1037527,65.7972362],[30.1084434,65.7849871],[30.1127521,65.7721474],[30.1171037,65.7593314],[30.1204275,65.7484154],[30.1241254,65.7353005],[30.1301764,65.7140402],[30.1340677,65.6997234],[30.1384664,65.6686764],[30.059366,65.6835748],[30.0396972,65.6872796],[30.0158071,65.6962422],[30.0013446,65.6931863],[29.9762385,65.6874467],[29.940859,65.6807105],[29.9307181,65.6787257],[29.900922,65.6730621],[29.8511487,65.6631477],[29.788664,65.6507119],[29.7505594,65.6430935],[29.7218642,65.6370848],[29.7539876,65.6093614],[29.7871112,65.5952792],[29.8154632,65.5835943],[29.8308628,65.5767936],[29.8435449,65.5707446],[29.8639091,65.5604413],[29.8133017,65.5340118],[29.8006503,65.5273627],[29.7901576,65.5208128],[29.7816881,65.5152379],[29.7638933,65.5033949],[29.7547067,65.4973644],[29.7511045,65.4879857],[29.7410795,65.4776391],[29.7328988,65.4696184],[29.731269,65.4474464],[29.7300309,65.4333755],[29.7288658,65.4174455],[29.7279526,65.4072122],[29.7286619,65.3932527],[29.7305406,65.3792867],[29.7349705,65.3677612],[29.7465771,65.3474169],[29.724017,65.3343516],[29.7111675,65.3267721],[29.6460627,65.2890764],[29.6092623,65.2757947],[29.6017894,65.259934],[29.6229131,65.2413473],[29.6339347,65.2315656],[29.6677696,65.2312347],[29.7006618,65.230841],[29.7280013,65.2276045],[29.7441619,65.2257998],[29.7641025,65.2288942],[29.816662,65.2228756],[29.8594516,65.2151507],[29.8856679,65.2062967],[29.8935921,65.1929709],[29.8279237,65.1499386],[29.8193446,65.1442772],[29.8517636,65.1291926],[29.8627774,65.1305885],[29.85282,65.1272277],[29.8681602,65.1194803],[29.8968651,65.1051404],[29.8718578,65.1037532],[29.8309549,65.0919272],[29.7326874,65.0912976],[29.7111921,65.083899],[29.6834291,65.0763627],[29.6545235,65.0681934],[29.6269697,65.0605988],[29.6235773,65.0475831],[29.6183995,65.0286943],[29.6144299,65.0127934],[29.5993322,64.9950618],[29.6116747,64.9729698],[29.6191892,64.9596633],[29.6153203,64.943894],[29.6110374,64.9273269],[29.6152439,64.9174367],[29.635444,64.8827767],[29.6449324,64.8664807],[29.6883508,64.8445991],[29.6996968,64.8372244],[29.6877615,64.8186633],[29.708051,64.807319],[29.7174912,64.8020571],[29.7396308,64.7897827],[29.7701723,64.7897831],[29.8688383,64.7897843],[29.8791609,64.7922453],[29.8976127,64.7935425],[29.9957858,64.7947824],[30.0071854,64.7915047],[30.0429363,64.7928899],[30.0575505,64.7865512],[30.0856041,64.7643249],[30.0413979,64.7411862],[30.053701,64.7130519],[30.1044403,64.6734682],[30.1259542,64.6567758],[30.135839,64.6490009],[30.1301155,64.6347333],[30.118974,64.6259097],[30.054335,64.6152701],[30.0005093,64.5923533],[29.9898082,64.5870845],[29.997439,64.5773106],[29.9919675,64.5547501],[29.9878117,64.537453],[29.993718,64.5267811],[30.0145963,64.5043418],[30.0297001,64.5006267],[30.0243759,64.482994],[30.0459327,64.4721205],[30.0583348,64.4508749],[30.0500368,64.4416262],[30.0572218,64.4342462],[30.0523221,64.3977904],[30.1099028,64.3650457],[30.1203976,64.3623165],[30.1371507,64.3579592],[30.2101519,64.3504661],[30.2626466,64.3360948],[30.2854947,64.3298262],[30.3021492,64.3198533],[30.3669276,64.2996785],[30.3607757,64.281319],[30.3882846,64.2690569],[30.4824397,64.2623385],[30.5095991,64.221691],[30.4663999,64.2044319],[30.4930374,64.1778196],[30.515893,64.1549652],[30.5534271,64.1322443],[30.5535801,64.1016818],[30.5225516,64.0440386],[30.491885,64.0169515],[30.4668473,63.9978738],[30.4470402,63.9827725],[30.3646448,63.9381095],[30.3535553,63.9320929],[30.3200157,63.9082361],[30.3140678,63.8996422],[30.260416,63.8220032],[30.1440627,63.7995912],[30.1332431,63.7970758],[30.0993119,63.7884698],[29.9792123,63.7533602],[30.0191231,63.732598],[30.0585413,63.7114942],[30.064364,63.7026901],[30.0727029,63.6948819],[30.0821352,63.6909826],[30.0930778,63.6867454],[30.1026509,63.6817461],[30.1144917,63.6753579],[30.1239653,63.667892],[30.184589,63.6377491],[30.2065773,63.6268014],[30.2470692,63.6016925],[30.2550073,63.5867394],[30.2664151,63.5809674],[30.2763899,63.578959],[30.3845259,63.545493],[30.4203969,63.5164928],[30.4584905,63.4854273],[30.483994,63.4666957],[30.5070277,63.460961],[30.6692675,63.4269208],[30.7605501,63.4102321],[30.7877047,63.4052709],[30.8425794,63.3753086],[30.8499894,63.3685655],[30.8599857,63.3667598],[30.869867,63.3651063],[30.8804251,63.3627395],[30.8905159,63.3615375],[30.9012562,63.3605003],[30.9124096,63.359426],[30.9243891,63.3577219],[30.9344176,63.3554397],[30.9440687,63.336628],[30.9543062,63.3282296],[30.9863023,63.307159],[31.0004032,63.3041864],[31.0206661,63.3032361],[31.0562634,63.2912255],[31.0927556,63.2759865],[31.1020651,63.2708747],[31.1169665,63.2707018],[31.1278799,63.2684377],[31.1377543,63.2651761],[31.147602,63.2617856],[31.1543242,63.2539916],[31.1624025,63.2467538],[31.172365,63.2413669],[31.1827066,63.2376216],[31.1923645,63.2340527],[31.2027598,63.231515],[31.2129822,63.2286398],[31.2217806,63.2237862],[31.2313011,63.2206458],[31.2408597,63.2136678],[31.2427729,63.1876014],[31.2548045,63.1786474],[31.2553376,63.146202],[31.2581134,63.1345775],[31.2653504,63.1152148],[31.2721187,63.1076263],[31.2827038,63.1007625],[31.2939812,63.0939188],[31.3638547,63.0706577],[31.3733108,63.0640851],[31.3813901,63.0580486],[31.3873481,63.0493372],[31.3991056,63.0466259],[31.4108722,63.0419726],[31.4250108,63.0432659],[31.4390222,63.0362137],[31.4630002,63.0242509],[31.4487587,63.0060578],[31.5021325,62.9962486],[31.5204656,62.9757481],[31.5418231,62.9518764],[31.5637485,62.9273288],[31.5765687,62.9167252],[31.5848283,62.9070414],[31.5699005,62.8938684],[31.5400392,62.8672256],[31.4918386,62.8267095],[31.4586639,62.7935223],[31.4666768,62.7839436],[31.4497865,62.7845224],[31.4344597,62.7779097],[31.4248495,62.7637758],[31.4194822,62.7546891],[31.4138603,62.7454709],[31.4029813,62.7274634],[31.3966154,62.7169425],[31.3803248,62.6899322],[31.3811459,62.6750102],[31.3761818,62.6636884],[31.3746508,62.6533957],[31.3661295,62.6467794],[31.3546635,62.6437197],[31.3451849,62.6400817],[31.3318373,62.6247487],[31.3123604,62.6019015],[31.2844538,62.5692074],[31.273396,62.5561558],[31.2541371,62.5333638],[31.2453035,62.523201],[31.2340449,62.511486],[31.2216468,62.4985754],[31.1981427,62.4957986],[31.1861984,62.4875752],[31.1733328,62.4819017],[31.1650962,62.4627103],[31.1628141,62.4460757],[31.1483885,62.4449821],[31.138138,62.4421701],[31.0935058,62.4166071],[31.0715865,62.405038],[30.9772449,62.3525194],[30.9518396,62.3308177],[30.9619952,62.327245],[30.9548848,62.3125879],[30.9432079,62.3058473],[30.9304166,62.3069487],[30.9202129,62.3090645],[30.9041949,62.3105377],[30.8866252,62.3017272],[30.8602311,62.2885747],[30.8464528,62.2816351],[30.8341149,62.2755062],[30.8086955,62.2610155],[30.7891931,62.2508037],[30.7735824,62.2406033],[30.7651379,62.2351173],[30.7432174,62.2255504],[30.7203074,62.2088758],[30.6846618,62.2104406],[30.6738348,62.2098112],[30.6514048,62.2038704],[30.6355183,62.1917171],[30.6302161,62.1822744],[30.6354435,62.1733334],[30.6277706,62.1659316],[30.6028572,62.1417799],[30.5891405,62.1335135],[30.5656463,62.1194233],[30.5347629,62.0990307],[30.4954104,62.072033],[30.4821087,62.063176],[30.4498071,62.0409015],[30.4389302,62.0334292],[30.4234723,62.0227797],[30.4081489,62.016112],[30.3770249,61.9995348],[30.351667,61.9800075],[30.3375865,61.9732455],[30.3271893,61.972654],[30.3173059,61.9688729],[30.3078603,61.9655838],[30.3085078,61.9555046],[30.31063,61.9419517],[30.3007412,61.9349716],[30.2845701,61.9341653],[30.2741662,61.9336443],[30.2635497,61.9263667],[30.2541701,61.9199779],[30.242136,61.911719],[30.220894,61.8985818],[30.2114279,61.8927059],[30.2012578,61.8918842],[30.1962134,61.8822077],[30.1774347,61.8709992],[30.1654671,61.8638663],[30.1556605,61.8579888],[30.1439682,61.8522341],[30.0706766,61.8174971],[30.0473435,61.7732648],[30.0381487,61.7654072],[30.0256804,61.7587814],[30.0138696,61.7529283],[29.9860884,61.7400084],[29.9476427,61.7213171],[29.9377738,61.7167756],[29.8922148,61.6939907],[29.8743471,61.6853067],[29.8656538,61.680045],[29.8615924,61.6705742],[29.8388264,61.6666875],[29.823548,61.658033],[29.8161129,61.6497607],[29.8121476,61.6394767],[29.8029888,61.6348119],[29.7936731,61.6269073],[29.7847672,61.6223503],[29.7762156,61.6162267],[29.7662055,61.6102078],[29.7546387,61.6031006],[29.7481238,61.5832202],[29.7405996,61.5757677],[29.7299051,61.5701726],[29.7109916,61.5603177],[29.6945126,61.5542843],[29.6848916,61.5499193],[29.6752639,61.5443966],[29.645237,61.5201517],[29.6008205,61.5002135],[29.5917921,61.4955884],[29.5790545,61.4958802],[29.5580632,61.4923345],[29.4962413,61.491902],[29.5031006,61.4612777],[29.44446,61.4244231],[29.4140391,61.4052495],[29.3304371,61.3526198],[29.322299,61.3439766],[29.3147508,61.3370443],[29.3055783,61.3286319],[29.2917335,61.3158571],[29.2829475,61.3077331],[29.2722471,61.2978697],[29.2645342,61.2910821],[29.2547227,61.2846754],[29.2389336,61.2681974],[29.2254643,61.2648456],[29.2147259,61.2610107],[29.2042313,61.2567729],[29.1937534,61.2528557],[29.1825826,61.2471554],[29.1722029,61.2418877],[29.1618105,61.2366194],[29.1397391,61.2291753],[29.0842603,61.2104366],[29.0263343,61.1902515],[29.0160298,61.1860978],[29.0065164,61.1822476],[28.9944917,61.1773836],[28.9791655,61.1687213],[28.9651003,61.1578685],[28.9516302,61.1516839],[28.9421886,61.1478407],[28.9262283,61.1457857],[28.9149631,61.1433276],[28.9024657,61.1445729],[28.8834746,61.1423758],[28.8727941,61.1355485],[28.8493626,61.1294465],[28.8317109,61.1248653],[28.8159262,61.1144604],[28.8106296,61.1025082],[28.8007991,61.092566],[28.7905934,61.0869443],[28.7771684,61.0795492],[28.7133537,61.0418255],[28.7109512,61.0311166],[28.7071457,61.0214668],[28.7001583,61.0085592],[28.6940795,60.9973259],[28.6872372,60.9847712],[28.6815644,60.9763139],[28.6725998,60.9668848],[28.6651566,60.9589748],[28.6492316,60.9481425],[28.6363152,60.9508348],[28.6217367,60.9538984],[28.6087184,60.9548218],[28.5728672,60.9516868],[28.5524215,60.9549344],[28.5373565,60.956476],[28.524607,60.9571057],[28.5151085,60.9505821],[28.5056055,60.9441855],[28.4922828,60.9351268],[28.484122,60.9256902],[28.4739332,60.924204],[28.4638088,60.9224912],[28.3927528,60.8846819],[28.3336939,60.8552552],[28.3223988,60.855355],[28.3160464,60.8468449],[28.3053338,60.8375851],[28.2935276,60.8309744],[28.2789306,60.8228371],[28.2684622,60.8169924],[28.2558445,60.8099522],[28.245797,60.8022408],[28.2313752,60.7911647],[28.2204938,60.782793],[28.2013835,60.7810702],[28.1852627,60.7796109],[28.1714444,60.7758676],[28.1633835,60.7680309],[28.1535784,60.758502],[28.1438179,60.7490038],[28.1326501,60.7396382],[28.1133337,60.7312156],[28.1025495,60.7265088],[28.0889885,60.7205952],[28.0785245,60.7151776],[28.0602886,60.7055792],[28.0504109,60.7004557],[28.0380412,60.6940284],[28.0178274,60.68118],[28.0050087,60.6741921],[27.9925492,60.6696766],[27.9828908,60.6644016],[27.9716187,60.6582788],[27.9508997,60.6469928],[27.9223706,60.6312012],[27.9040093,60.6212004],[27.8831612,60.6098852],[27.8734261,60.6045527],[27.8621551,60.5947422],[27.8446146,60.5807424],[27.8428112,60.5705999],[27.8470961,60.5612943],[27.8360636,60.5589316],[27.8260732,60.5567835],[27.8154925,60.5545074],[27.8060565,60.550223],[27.7950909,60.5447986],[27.7744141,60.5335769],[27.7683117,60.5038658],[27.7681878,60.4890601],[27.7482549,60.4692183],[27.7479527,60.4511705],[27.7130504,60.4422592],[27.6869201,60.4335706],[27.7257747,60.3916766],[27.6697877,60.3571169],[27.6169676,60.3244211],[27.5859624,60.3051874],[27.5453047,60.2799142],[27.5047098,60.2546468],[27.4560114,60.223152],[27.2930435,60.2002026],[26.8756332,60.2003421],[26.7646434,60.2001821],[26.741517,60.1892411],[26.6561488,60.1712626],[26.6110136,60.1617532],[26.4919587,60.1535162],[26.4262093,60.1178906],[26.3604599,60.0822265],[26.2947105,60.0465237],[26.2712854,60.0446916],[26.1885563,60.0382204],[26.0750701,60.0140664],[26.0173046,59.9767969],[25.9180553,59.9656036],[25.818806,59.9544065],[25.7195566,59.9432056],[25.6203073,59.9320009],[25.5826893,59.9281997],[25.4712671,59.9313134],[25.413615,59.934434],[25.3290779,59.9375507],[25.2492148,59.9404948],[25.1693516,59.9434386],[25.0895598,59.9360766],[25.0097679,59.928713],[24.9423061,59.922486],[24.9299761,59.9213478],[24.8579328,59.9064917],[24.831625,59.9010905],[24.7853726,59.8920593],[24.6863541,59.86708],[24.5873355,59.8420819],[24.488317,59.817065],[24.4102228,59.806939],[24.3321287,59.7968099],[24.2815873,59.7915557],[24.206091,59.7837058],[24.1684459,59.7781246],[24.094752,59.7671988],[23.983413,59.7506836],[23.8868346,59.7363512],[23.8017983,59.7237266],[23.6875729,59.7067611],[23.6053998,59.6946316],[23.5245995,59.6825953],[23.4566746,59.6724736],[23.3520495,59.6568771],[23.3111362,59.6551606],[23.2700574,59.6534371],[23.2274161,59.651648],[23.2154172,59.6511692],[23.1173185,59.6469264],[23.0523505,59.6440982],[22.9873824,59.6412698],[22.9224144,59.6384411],[22.8574463,59.6356122],[22.788144,59.6269362],[22.7188416,59.6182579],[22.6589293,59.6110023],[22.6345729,59.6079549],[22.5602852,59.5784222],[22.5000001,59.5544163],[22.4790465,59.5460684],[22.3965563,59.5130947],[22.2886676,59.5088278],[22.1806196,59.504467],[22.0980848,59.5010825],[22.0718017,59.4999776],[22.016825,59.4976905],[21.9648942,59.4954882],[21.893909,59.4924595],[21.8499618,59.4905426],[21.7493841,59.4861562],[21.6414734,59.4813397],[21.5335894,59.4764519],[21.5208631,59.4759645],[21.5088897,59.4757041],[21.4878397,59.4757259],[21.4718538,59.476092],[21.4585468,59.4766571],[21.4475658,59.4772985],[21.4345682,59.4782658],[21.4118367,59.4801476],[21.3799935,59.4827993],[21.354697,59.4848788],[21.3223281,59.4875502],[21.2871483,59.4904301],[21.2554767,59.4930385],[21.2101367,59.4967337],[20.813152,59.472654],[20.3839584,59.4576178],[20.3724113,59.4557342],[20.3598353,59.454523],[20.3471496,59.4541578],[20.333906,59.4546854],[20.3198411,59.4562679],[20.3069034,59.4587339],[20.2949231,59.4620801],[20.2843364,59.4660819],[20.2118795,59.4973827],[20.1394226,59.5286546],[20.0669657,59.5598974],[19.9945088,59.5911113],[19.9406472,59.5950639],[19.9288197,59.6033564],[19.871104,59.6437593],[19.8132483,59.6841366],[19.6971185,59.7648146],[19.6582833,59.7916833],[19.607368,59.827593],[19.4918792,59.9086831],[19.423519,59.9564474],[19.375827,59.98967],[19.3251963,60.0248456],[19.2786826,60.0570802],[19.2446673,60.0806014],[19.1811414,60.1244188],[19.0832,60.1916833]]]}}]}